ZHUHAI-1 02 (CAS-4B)    
1 42759U 17034B   23172.73067284  .00008647  00000+0  43411-3 0  9994
2 42759  43.0161  90.4293 0009672 137.0886 223.0718 15.17507424332320
ZHUHAI-1 01 (CAS-4A)    
1 42761U 17034D   23172.74675853  .00008778  00000+0  44036-3 0  9994
2 42761  43.0149  88.8693 0010516 138.0900 222.0755 15.17513331332336
MAX VALIER SAT          
1 42778U 17036P   23172.58805060  .00024110  00000+0  62250-3 0  9997
2 42778  97.1535 207.3279 0010250  91.3598 268.8823 15.39083640333402
RADFXSAT (FOX-1B)       
1 43017U 17073E   23172.42830649  .00009724  00000+0  67271-3 0  9991
2 43017  97.6299  56.5974 0234612  55.5714 306.7435 14.86174385301818
FOX-1D (AO-92)          
1 43137U 18004AC  23172.47018600  .00038452  00000+0  77658-3 0  9999
2 43137  97.3283 251.7083 0006677 124.8780 235.3098 15.46379532302970
DIWATA-2B               
1 43678U 18084H   23172.67779981  .00001945  00000+0  19060-3 0  9995
2 43678  98.0237 316.7372 0010440 141.0433 219.1540 14.93445349252932
ES'HAIL 2               
1 43700U 18090A   23172.12827465  .00000149  00000+0  00000+0 0  9994
2 43700   0.0182  15.1918 0001480 110.3265 215.5191  1.00272242 16723
FOX-1CLIFF (AO-95)      
1 43770U 18099N   23172.42850825  .00005538  00000+0  45044-3 0  9997
2 43770  97.5691 233.8511 0013568 124.2511 236.0000 14.99881440248241
ITASAT 1                
1 43786U 18099AE  23172.43160459  .00004676  00000+0  38437-3 0  9992
2 43786  97.5731 234.8874 0014023 112.2933 247.9779 14.99550062248289
JY1SAT (JO-97)          
1 43803U 18099AX  23172.71560284  .00006612  00000+0  52234-3 0  9996
2 43803  97.5702 235.1661 0015448  79.1177 281.1785 15.00909661248371
UWE-4                   
1 43880U 18111E   23172.55340876  .00006898  00000+0  52531-3 0  9997
2 43880  97.6340  77.6621 0018783 156.0965 204.1136 15.02250959245020
NEXUS (FO-99)           
1 43937U 19003F   23172.54598681  .00058850  00000+0  92299-3 0  9999
2 43937  97.0841 199.7004 0010084 246.6940 113.3253 15.53446827246725
JAISAT-1                
1 44419U 19038F   23172.47613240  .00022502  00000+0  76271-3 0  9991
2 44419  97.6735 154.3397 0011856 287.5762  72.4183 15.30501210219196
DUCHIFAT-3              
1 44854U 19089C   23172.78076166  .00008358  00000+0  56175-3 0  9998
2 44854  36.9627  63.8335 0009413 343.7373  16.3068 15.06322600193524
CAS-6 (TIANQIN 1)       
1 44881U 19093C   23172.75127729  .00001101  00000+0  14320-3 0  9997
2 44881  97.8616 251.1247 0016005  66.0350 294.2537 14.82549735189477
RS-44 & BREEZE-KM R/B   
1 44909U 19096E   23172.52265362  .00000021  00000+0  36677-4 0  9992
2 44909  82.5217 345.0639 0217567 176.5586 183.7075 12.79721484162712
BY70-2                  
1 45857U 20042B   23172.77504223  .00019369  00000+0  19770-2 0  9995
2 45857  97.9255 252.6883 0007369 358.9816   1.1386 14.90644392160229
SALSAT                  
1 46495U 20068K   23172.43460764  .00004257  00000+0  28175-3 0  9996
2 46495  97.7705 120.4823 0017414 104.2942 256.0220 15.07771371149712
RADFXSAT-2 (AO-109)     
1 47311U 21002C   23172.20629913  .00026257  00000+0  67445-3 0  9998
2 47311  60.6811  43.0899 0011327 185.8768 174.2196 15.39179072134901
UVSQ-SAT                
1 47438U 21006AB  23172.69156735  .00015768  00000+0  64161-3 0  9999
2 47438  97.3833 229.7332 0011026  72.7276 287.5167 15.24544274133337
DIY-1 (ARDUIQUBE)       
1 47963U 21022AH  23172.47674170  .00319156  00000+0  31057-2 0  9999
2 47963  97.4937  81.3779 0005448 164.7639 195.3785 15.65250633123260
XW-3 (CAS-9)            
1 50466U 21131B   23172.75915649  .00000690  00000+0  23817-3 0  9998
2 50466  98.5520 254.2899 0005393 120.4710 239.7011 14.38930343 78013
TEVEL-3                 
1 50988U 22002E   23172.70617715  .00018817  00000+0  74916-3 0  9999
2 50988  97.4324 239.6403 0007566 206.2524 153.8332 15.25268471 79454
TEVEL-8                 
1 50989U 22002F   23172.72512304  .00019430  00000+0  77495-3 0  9997
2 50989  97.4341 239.7188 0007611 205.3782 154.7083 15.25201402 79456
TEVEL-5                 
1 50998U 22002Q   23172.71395080  .00019768  00000+0  76722-3 0  9992
2 50998  97.4320 240.0367 0008859 202.2033 157.8823 15.26099823 79489
TEVEL-6                 
1 50999U 22002R   23172.71247495  .00019795  00000+0  76827-3 0  9995
2 50999  97.4319 240.0298 0008868 201.9987 158.0872 15.26100313 79489
TEVEL-1                 
1 51013U 22002AF  23172.71611528  .00019356  00000+0  77155-3 0  9993
2 51013  97.4321 239.5926 0007486 205.9203 154.1661 15.25222511 79455
TEVEL-7                 
1 51062U 22002CG  23172.72606671  .00019663  00000+0  78377-3 0  9999
2 51062  97.4337 239.6927 0007592 204.9787 155.1084 15.25220280 79453
TEVEL-4                 
1 51063U 22002CH  23172.73229868  .00019832  00000+0  79170-3 0  9990
2 51063  97.4337 239.6823 0007601 205.2301 154.8566 15.25167564 79452
TEVEL-2                 
1 51069U 22002CP  23172.77360286  .00019147  00000+0  76212-3 0  9993
2 51069  97.4322 239.6785 0007537 205.6675 154.4190 15.25274034 79466
GREENCUBE               
1 53106U 22080B   23172.41016717 -.00000003  00000+0  00000+0 0  9991
2 53106  70.1617 318.2520 0008546 184.7855 175.2724  6.42556995 22026
RS29S (SXC3-2110 CYCLO*)
1 53373U 22096D   23172.68920319  .00032176  00000+0  82599-3 0  9997
2 53373  97.4131  79.0367 0003311 109.5685 250.5918 15.39253551 48384
RS32S (SXC3-212 MONITO*)
1 53374U 22096E   23172.79091165  .00029134  00000+0  76961-3 0  9994
2 53374  97.4108  79.0107 0003839 108.8554 251.3107 15.38392247 48398
RS34S (SXC3-218 KUZBAS*)
1 53375U 22096F   23172.68766545  .00024824  00000+0  70038-3 0  9994
2 53375  97.4136  78.5856 0003651 105.7151 254.4496 15.36380108 48358
RS23S (SXC3-21 UTMN)    
1 53376U 22096G   23172.70859627  .00025250  00000+0  70020-3 0  9997
2 53376  97.4131  78.7031 0003394 105.9220 254.2399 15.36916435 48363
RS28S (SXC3-214 MIET-A*)
1 53377U 22096H   23172.76390880  .00022127  00000+0  63390-3 0  9997
2 53377  97.4142  78.6445 0003495 104.3622 255.8010 15.35925703 48369
RS26S (KAI-1)           
1 53378U 22096J   23172.74186307  .00019528  00000+0  58653-3 0  9990
2 53378  97.4159  78.3856 0003321 102.0775 258.0840 15.34462265 48345
RS19S (SXC3-219 ISOI)   
1 53381U 22096M   23172.70921064  .00023617  00000+0  65836-3 0  9992
2 53381  97.4131  78.8502 0004998  68.8112 291.3666 15.36759889 48379
RS21S (CUBESX-HSE-2)    
1 53383U 22096P   23172.74579710  .00025145  00000+0  69037-3 0  9990
2 53383  97.4135  78.9654 0005462  67.6823 292.5000 15.37219100 48381
RS30S (SXC3-217 SIREN)  
1 53384U 22096Q   23172.78203237  .00021083  00000+0  60893-3 0  9991
2 53384  97.4147  78.7792 0005265  63.5986 296.5797 15.35672492 48373
RS20S (GEOSCAN-EDELVEIS)
1 53385U 22096R   23171.74185802  .00013672  00000+0  33633-3 0  9991
2 53385  97.4123  78.6044 0005649  65.4195 294.7639 15.40726082 48305
RS33S (SXC3-215 VIZARD) 
1 53386U 22096S   23172.68472544  .00046178  00000+0  98815-3 0  9998
2 53386  97.4121  80.2402 0005936  67.5262 292.6615 15.44645064 48482
CAS-5A (FO-118)         
1 54684U 22167C   23172.76858403  .00010927  00000+0  60200-3 0  9990
2 54684  97.5638 310.3138 0012394 322.8095  37.2277 15.14120959 29370
